"{\n    \"CCSDS_OMM_VERS\": \"2.0\",\n    \"COMMENT\": \"GENERATED VIA SPACE-TRACK.ORG API\",\n    \"CREATION_DATE\": \"2025-08-31T17:37:22\",\n    \"ORIGINATOR\": \"18 SPCS\",\n    \"OBJECT_NAME\": \"NAVSTAR 80 (USA 309)\",\n    \"OBJECT_ID\": \"2020-078A\",\n    \"CENTER_NAME\": \"EARTH\",\n    \"REF_FRAME\": \"TEME\",\n    \"TIME_SYSTEM\": \"UTC\",\n    \"MEAN_ELEMENT_THEORY\": \"SGP4\",\n    \"EPOCH\": \"2025-08-31T08:02:36.472704\",\n    \"MEAN_MOTION\": \"2.0056724146\",\n    \"ECCENTRICITY\": \"0.0062294435\",\n    \"INCLINATION\": \"54.044123\",\n    \"RA_OF_ASC_NODE\": \"222.53487\",\n    \"ARG_OF_PERICENTER\": \"203.54838\",\n    \"MEAN_ANOMALY\": \"326.72961\",\n    \"EPHEMERIS_TYPE\": \"0\",\n    \"CLASSIFICATION_TYPE\": \"U\",\n    \"NORAD_CAT_ID\": \"46826\",\n    \"ELEMENT_SET_NO\": \"999\",\n    \"REV_AT_EPOCH\": \"3569\",\n    \"BSTAR\": \"0\",\n    \"MEAN_MOTION_DOT\": \"0.000000617685\",\n    \"MEAN_MOTION_DDOT\": \"0\",\n    \"TLE_LINE0\": \"0 NAVSTAR 80 (USA 309)\",\n    \"TLE_LINE1\": \"1 46826U 20078A   25243.33514436  .00000062  00000-0  00000-0 0  9996\",\n    \"TLE_LINE2\": \"2 46826  54.0441 222.5349 0062294 203.5484 326.7296  2.00567241 35697\",\n    \"SEMIMAJOR_AXIS\": \"26560.027\",\n    \"PERIOD\": \"717.964\",\n    \"APOAPSIS\": \"20347.346\",\n    \"PERIAPSIS\": \"20016.438\",\n    \"OBJECT_TYPE\": \"PAYLOAD\",\n    \"DECAYED\": \"0\"\n}"